[{"OBJECT_NAME":"STARLINK-31521","OBJECT_ID":"2024-036T","EPOCH":"2026-03-09T06:15:05.633568","MEAN_MOTION":15.30193288,"ECCENTRICITY":0.00011502,"INCLINATION":53.1608,"RA_OF_ASC_NODE":80.3916,"ARG_OF_PERICENTER":77.6173,"MEAN_ANOMALY":282.4956,"EPHEMERIS_TYPE":0,"CLASSIFICATION_TYPE":"U","NORAD_CAT_ID":59015,"ELEMENT_SET_NO":999,"REV_AT_EPOCH":11525,"BSTAR":-5.110409e-6,"MEAN_MOTION_DOT":-5.1e-6,"MEAN_MOTION_DDOT":0},{"OBJECT_NAME":"THORAD AGENA D DEB","OBJECT_ID":"1969-082CP","EPOCH":"2026-03-09T22:51:31.947840","MEAN_MOTION":15.31252047,"ECCENTRICITY":0.00108961,"INCLINATION":69.8927,"RA_OF_ASC_NODE":265.8646,"ARG_OF_PERICENTER":335.0972,"MEAN_ANOMALY":24.9676,"EPHEMERIS_TYPE":0,"CLASSIFICATION_TYPE":"U","NORAD_CAT_ID":4133,"ELEMENT_SET_NO":999,"REV_AT_EPOCH":97550,"BSTAR":0.0018489552,"MEAN_MOTION_DOT":0.00056347,"MEAN_MOTION_DDOT":0}]
